start=new Date('2022-10-06T00:00:00.000Z').valueOf();
sats=[{"RCS_SIZE":"LARGE","DECAY_DATE":null,"COUNTRY_CODE":"US","OBJECT_NAME":"STARLINK-4215","PERIAPSIS":"538.706","RA_OF_ASC_NODE":"309.0428","EPHEMERIS_TYPE":"0","ARG_OF_PERICENTER":"46.6474","GP_ID":"214277582","TLE_LINE1":"1 53007U 22076X   22278.91667824  .00047100  00000-0  29611-2 0  9999","REF_FRAME":"TEME","LAUNCH_DATE":"2022-07-07","REV_AT_EPOCH":"130","BSTAR":"0.00296110000000","APOAPSIS":"541.035","CENTER_NAME":"EARTH","NORAD_CAT_ID":"53007","OBJECT_TYPE":"PAYLOAD","MEAN_MOTION_DOT":"0.00047100","TIME_SYSTEM":"UTC","FILE":"3593077","TLE_LINE2":"2 53007  53.2171 309.0428 0001683  46.6474   3.1502 15.08799071  1303","SITE":"AFETR","INCLINATION":"53.2171","MEAN_MOTION":"15.08799071","MEAN_ELEMENT_THEORY":"SGP4","MEAN_MOTION_DDOT":"0.0000000000000","SEMIMAJOR_AXIS":"6918.005","EPOCH":"2022-10-05T22:00:00.999936","ECCENTRICITY":"0.00016830","CLASSIFICATION_TYPE":"U","MEAN_ANOMALY":"3.1502","PERIOD":"95.440","ELEMENT_SET_NO":"999","OBJECT_ID":"2022-076X"},{"SEMIMAJOR_AXIS":"6918.032","MEAN_ANOMALY":"330.1215","CLASSIFICATION_TYPE":"U","ECCENTRICITY":"0.00015210","EPOCH":"2022-10-05T22:00:00.999936","ELEMENT_SET_NO":"999","PERIOD":"95.441","OBJECT_ID":"2022-076Y","FILE":"3593077","TLE_LINE2":"2 53008  53.2176 309.0456 0001521  54.4785 330.1215 15.08790507  1302","TIME_SYSTEM":"UTC","MEAN_MOTION_DOT":"0.00047047","OBJECT_TYPE":"PAYLOAD","SITE":"AFETR","MEAN_ELEMENT_THEORY":"SGP4","MEAN_MOTION":"15.08790507","INCLINATION":"53.2176","MEAN_MOTION_DDOT":"0.0000000000000","GP_ID":"214278323","TLE_LINE1":"1 53008U 22076Y   22278.91667824  .00047047  00000-0  29585-2 0  9990","BSTAR":"0.00295850000000","REV_AT_EPOCH":"130","REF_FRAME":"TEME","LAUNCH_DATE":"2022-07-07","APOAPSIS":"540.949","NORAD_CAT_ID":"53008","CENTER_NAME":"EARTH","COUNTRY_CODE":"US","RCS_SIZE":"LARGE","DECAY_DATE":null,"PERIAPSIS":"538.844","OBJECT_NAME":"STARLINK-4275","EPHEMERIS_TYPE":"0","ARG_OF_PERICENTER":"54.4785","RA_OF_ASC_NODE":"309.0456"},{"SEMIMAJOR_AXIS":"6917.460","EPOCH":"2022-10-05T22:00:00.999936","ECCENTRICITY":"0.00016140","CLASSIFICATION_TYPE":"U","MEAN_ANOMALY":"71.7444","PERIOD":"95.429","ELEMENT_SET_NO":"999","OBJECT_ID":"2022-076Z","OBJECT_TYPE":"PAYLOAD","MEAN_MOTION_DOT":"-0.00215073","TIME_SYSTEM":"UTC","FILE":"3593077","TLE_LINE2":"2 53009  53.2173 299.0527 0001614  52.9334  71.7444 15.08977698  1303","SITE":"AFETR","MEAN_MOTION":"15.08977698","INCLINATION":"53.2173","MEAN_ELEMENT_THEORY":"SGP4","MEAN_MOTION_DDOT":"0.0000000000000","TLE_LINE1":"1 53009U 22076Z   22278.91667824 -.00215073  00000-0 -13854-1 0  9990","GP_ID":"214278161","REF_FRAME":"TEME","LAUNCH_DATE":"2022-07-07","REV_AT_EPOCH":"130","BSTAR":"-0.01385400000000","APOAPSIS":"540.441","CENTER_NAME":"EARTH","NORAD_CAT_ID":"53009","RCS_SIZE":"LARGE","DECAY_DATE":null,"COUNTRY_CODE":"US","OBJECT_NAME":"STARLINK-4277","PERIAPSIS":"538.208","RA_OF_ASC_NODE":"299.0527","ARG_OF_PERICENTER":"52.9334","EPHEMERIS_TYPE":"0"},{"COUNTRY_CODE":"US","DECAY_DATE":null,"RCS_SIZE":"LARGE","PERIAPSIS":"538.487","OBJECT_NAME":"STARLINK-4263","RA_OF_ASC_NODE":"309.0438","ARG_OF_PERICENTER":"35.8372","EPHEMERIS_TYPE":"0","TLE_LINE1":"1 53010U 22076AA  22278.91667824  .00038772  00000-0  24437-2 0  9999","GP_ID":"214278482","REF_FRAME":"TEME","LAUNCH_DATE":"2022-07-07","REV_AT_EPOCH":"130","BSTAR":"0.00244370000000","APOAPSIS":"541.266","NORAD_CAT_ID":"53010","CENTER_NAME":"EARTH","TLE_LINE2":"2 53010  53.2173 309.0438 0002009  35.8372 353.9634 15.08797051  1308","FILE":"3593077","OBJECT_TYPE":"PAYLOAD","MEAN_MOTION_DOT":"0.00038772","TIME_SYSTEM":"UTC","SITE":"AFETR","MEAN_ELEMENT_THEORY":"SGP4","INCLINATION":"53.2173","MEAN_MOTION":"15.08797051","MEAN_MOTION_DDOT":"0.0000000000000","SEMIMAJOR_AXIS":"6918.012","CLASSIFICATION_TYPE":"U","MEAN_ANOMALY":"353.9634","EPOCH":"2022-10-05T22:00:00.999936","ECCENTRICITY":"0.00020090","PERIOD":"95.440","ELEMENT_SET_NO":"999","OBJECT_ID":"2022-076AA"},{"SEMIMAJOR_AXIS":"6916.803","CLASSIFICATION_TYPE":"U","MEAN_ANOMALY":"101.7300","EPOCH":"2022-10-05T22:00:00.999936","ECCENTRICITY":"0.00018150","ELEMENT_SET_NO":"999","PERIOD":"95.415","OBJECT_ID":"2022-076AB","TLE_LINE2":"2 53011  53.2174 299.0523 0001815  42.7915 101.7300 15.09192588  1301","FILE":"3593077","MEAN_MOTION_DOT":"-0.00451497","OBJECT_TYPE":"PAYLOAD","TIME_SYSTEM":"UTC","SITE":"AFETR","MEAN_ELEMENT_THEORY":"SGP4","MEAN_MOTION":"15.09192588","INCLINATION":"53.2174","MEAN_MOTION_DDOT":"0.0000000000000","TLE_LINE1":"1 53011U 22076AB  22278.91667824 -.00451497  00000-0 -29896-1 0  9998","GP_ID":"214277999","REF_FRAME":"TEME","LAUNCH_DATE":"2022-07-07","REV_AT_EPOCH":"130","BSTAR":"-0.02989600000000","APOAPSIS":"539.923","NORAD_CAT_ID":"53011","CENTER_NAME":"EARTH","COUNTRY_CODE":"US","DECAY_DATE":null,"RCS_SIZE":"LARGE","PERIAPSIS":"537.412","OBJECT_NAME":"STARLINK-4265","RA_OF_ASC_NODE":"299.0523","ARG_OF_PERICENTER":"42.7915","EPHEMERIS_TYPE":"0"},{"CLASSIFICATION_TYPE":"U","MEAN_ANOMALY":"22.1180","EPOCH":"2022-10-05T22:00:00.999936","ECCENTRICITY":"0.00015280","SEMIMAJOR_AXIS":"6918.024","OBJECT_ID":"2022-076AC","PERIOD":"95.441","ELEMENT_SET_NO":"999","SITE":"AFETR","TLE_LINE2":"2 53012  53.2185 309.0474 0001528  47.6744  22.1180 15.08793140  1308","FILE":"3593077","MEAN_MOTION_DOT":"0.00028909","OBJECT_TYPE":"PAYLOAD","TIME_SYSTEM":"UTC","MEAN_MOTION_DDOT":"0.0000000000000","MEAN_ELEMENT_THEORY":"SGP4","INCLINATION":"53.2185","MEAN_MOTION":"15.08793140","REF_FRAME":"TEME","LAUNCH_DATE":"2022-07-07","BSTAR":"0.00182940000000","REV_AT_EPOCH":"130","TLE_LINE1":"1 53012U 22076AC  22278.91667824  .00028909  00000-0  18294-2 0  9996","GP_ID":"214277908","NORAD_CAT_ID":"53012","CENTER_NAME":"EARTH","APOAPSIS":"540.946","PERIAPSIS":"538.832","OBJECT_NAME":"STARLINK-4271","COUNTRY_CODE":"US","DECAY_DATE":null,"RCS_SIZE":"LARGE","RA_OF_ASC_NODE":"309.0474","ARG_OF_PERICENTER":"47.6744","EPHEMERIS_TYPE":"0"},{"REF_FRAME":"TEME","LAUNCH_DATE":"2022-07-07","BSTAR":"-0.06040700000000","REV_AT_EPOCH":"130","GP_ID":"214277745","TLE_LINE1":"1 53013U 22076AD  22278.91667824 -.00913765  00000-0 -60407-1 0  9994","NORAD_CAT_ID":"53013","CENTER_NAME":"EARTH","APOAPSIS":"537.938","PERIAPSIS":"535.630","OBJECT_NAME":"STARLINK-4177","COUNTRY_CODE":"US","DECAY_DATE":null,"RCS_SIZE":"LARGE","RA_OF_ASC_NODE":"299.0541","EPHEMERIS_TYPE":"0","ARG_OF_PERICENTER":"59.0789","CLASSIFICATION_TYPE":"U","MEAN_ANOMALY":"124.7686","EPOCH":"2022-10-05T22:00:00.999936","ECCENTRICITY":"0.00016690","SEMIMAJOR_AXIS":"6914.919","OBJECT_ID":"2022-076AD","ELEMENT_SET_NO":"999","PERIOD":"95.376","SITE":"AFETR","FILE":"3593077","TLE_LINE2":"2 53013  53.2174 299.0541 0001669  59.0789 124.7686 15.09809322  1303","MEAN_MOTION_DOT":"-0.00913765","OBJECT_TYPE":"PAYLOAD","TIME_SYSTEM":"UTC","MEAN_MOTION_DDOT":"0.0000000000000","MEAN_ELEMENT_THEORY":"SGP4","INCLINATION":"53.2174","MEAN_MOTION":"15.09809322"},{"BSTAR":"0.00022553000000","REV_AT_EPOCH":"130","REF_FRAME":"TEME","LAUNCH_DATE":"2022-07-07","GP_ID":"214278724","TLE_LINE1":"1 53014U 22076AE  22278.91667824  .00003303  00000-0  22553-3 0  9993","CENTER_NAME":"EARTH","NORAD_CAT_ID":"53014","APOAPSIS":"540.789","OBJECT_NAME":"STARLINK-4183","PERIAPSIS":"538.740","RCS_SIZE":"LARGE","DECAY_DATE":null,"COUNTRY_CODE":"US","ARG_OF_PERICENTER":"64.7727","EPHEMERIS_TYPE":"0","RA_OF_ASC_NODE":"299.0514","ECCENTRICITY":"0.00014810","EPOCH":"2022-10-05T22:00:00.999936","MEAN_ANOMALY":"39.9793","CLASSIFICATION_TYPE":"U","SEMIMAJOR_AXIS":"6917.900","OBJECT_ID":"2022-076AE","ELEMENT_SET_NO":"999","PERIOD":"95.438","SITE":"AFETR","TIME_SYSTEM":"UTC","OBJECT_TYPE":"PAYLOAD","MEAN_MOTION_DOT":"0.00003303","TLE_LINE2":"2 53014  53.2174 299.0514 0001481  64.7727  39.9793 15.08833692  1303","FILE":"3593077","MEAN_MOTION_DDOT":"0.0000000000000","MEAN_MOTION":"15.08833692","INCLINATION":"53.2174","MEAN_ELEMENT_THEORY":"SGP4"},{"REF_FRAME":"TEME","LAUNCH_DATE":"2022-07-07","REV_AT_EPOCH":"130","BSTAR":"-0.06970500000000","GP_ID":"214277583","TLE_LINE1":"1 53015U 22076AF  22278.91667824 -.01073817  00000-0 -69705-1 0  9992","CENTER_NAME":"EARTH","NORAD_CAT_ID":"53015","APOAPSIS":"536.053","OBJECT_NAME":"STARLINK-4262","PERIAPSIS":"533.526","DECAY_DATE":null,"RCS_SIZE":"LARGE","COUNTRY_CODE":"US","RA_OF_ASC_NODE":"299.0571","ARG_OF_PERICENTER":"43.2441","EPHEMERIS_TYPE":"0","EPOCH":"2022-10-05T22:00:00.999936","ECCENTRICITY":"0.00018280","CLASSIFICATION_TYPE":"U","MEAN_ANOMALY":"179.3522","SEMIMAJOR_AXIS":"6912.925","OBJECT_ID":"2022-076AF","PERIOD":"95.335","ELEMENT_SET_NO":"999","SITE":"AFETR","OBJECT_TYPE":"PAYLOAD","MEAN_MOTION_DOT":"-0.01073817","TIME_SYSTEM":"UTC","TLE_LINE2":"2 53015  53.2174 299.0571 0001828  43.2441 179.3522 15.10462775  1309","FILE":"3593077","MEAN_MOTION_DDOT":"0.0000000000000","MEAN_MOTION":"15.10462775","INCLINATION":"53.2174","MEAN_ELEMENT_THEORY":"SGP4"},{"SEMIMAJOR_AXIS":"6915.941","ECCENTRICITY":"0.00018330","EPOCH":"2022-10-05T22:00:00.999936","MEAN_ANOMALY":"122.0293","CLASSIFICATION_TYPE":"U","ELEMENT_SET_NO":"999","PERIOD":"95.397","OBJECT_ID":"2022-076AG","TIME_SYSTEM":"UTC","OBJECT_TYPE":"PAYLOAD","MEAN_MOTION_DOT":"-0.00685503","FILE":"3593077","TLE_LINE2":"2 53016  53.2176 299.0542 0001833  42.2180 122.0293 15.09474745  1303","SITE":"AFETR","INCLINATION":"53.2176","MEAN_MOTION":"15.09474745","MEAN_ELEMENT_THEORY":"SGP4","MEAN_MOTION_DDOT":"0.0000000000000","TLE_LINE1":"1 53016U 22076AG  22278.91667824 -.00685503  00000-0 -45316-1 0  9995","GP_ID":"214278324","BSTAR":"-0.04531600000000","REV_AT_EPOCH":"130","LAUNCH_DATE":"2022-07-07","REF_FRAME":"TEME","APOAPSIS":"539.074","CENTER_NAME":"EARTH","NORAD_CAT_ID":"53016","DECAY_DATE":null,"RCS_SIZE":"LARGE","COUNTRY_CODE":"US","OBJECT_NAME":"STARLINK-4283","PERIAPSIS":"536.538","EPHEMERIS_TYPE":"0","ARG_OF_PERICENTER":"42.2180","RA_OF_ASC_NODE":"299.0542"}];
